[{"OBJECT_NAME":"STARLINK-35026","OBJECT_ID":"2025-198Y","EPOCH":"2026-03-09T22:36:41.553504","MEAN_MOTION":15.30185718,"ECCENTRICITY":0.00015757,"INCLINATION":53.1596,"RA_OF_ASC_NODE":270.1828,"ARG_OF_PERICENTER":53.9969,"MEAN_ANOMALY":306.1177,"EPHEMERIS_TYPE":0,"CLASSIFICATION_TYPE":"U","NORAD_CAT_ID":65514,"ELEMENT_SET_NO":999,"REV_AT_EPOCH":2865,"BSTAR":0.00068971661,"MEAN_MOTION_DOT":0.00020115,"MEAN_MOTION_DDOT":0},{"OBJECT_NAME":"KUIPER-00177","OBJECT_ID":"2026-030C","EPOCH":"2026-03-09T22:40:13.687104","MEAN_MOTION":15.35467467,"ECCENTRICITY":0.00021592,"INCLINATION":51.8837,"RA_OF_ASC_NODE":217.7875,"ARG_OF_PERICENTER":172.5497,"MEAN_ANOMALY":187.5522,"EPHEMERIS_TYPE":0,"CLASSIFICATION_TYPE":"U","NORAD_CAT_ID":67766,"ELEMENT_SET_NO":999,"REV_AT_EPOCH":513,"BSTAR":-0.015747205,"MEAN_MOTION_DOT":-0.00515419,"MEAN_MOTION_DDOT":0}]
